[{"OBJECT_NAME":"UHETSAT","OBJECT_ID":"2023-185E","EPOCH":"2026-03-09T22:39:26.455680","MEAN_MOTION":15.29797662,"ECCENTRICITY":0.00118435,"INCLINATION":97.3584,"RA_OF_ASC_NODE":137.3576,"ARG_OF_PERICENTER":307.7346,"MEAN_ANOMALY":52.2821,"EPHEMERIS_TYPE":0,"CLASSIFICATION_TYPE":"U","NORAD_CAT_ID":58466,"ELEMENT_SET_NO":999,"REV_AT_EPOCH":12611,"BSTAR":0.00030513019,"MEAN_MOTION_DOT":8.749e-5,"MEAN_MOTION_DDOT":0},{"OBJECT_NAME":"STARLINK-32401","OBJECT_ID":"2024-202W","EPOCH":"2026-03-09T21:16:25.195008","MEAN_MOTION":15.27582255,"ECCENTRICITY":8.252e-5,"INCLINATION":42.9987,"RA_OF_ASC_NODE":237.2251,"ARG_OF_PERICENTER":259.5692,"MEAN_ANOMALY":100.5067,"EPHEMERIS_TYPE":0,"CLASSIFICATION_TYPE":"U","NORAD_CAT_ID":61865,"ELEMENT_SET_NO":999,"REV_AT_EPOCH":7536,"BSTAR":3.1276576e-5,"MEAN_MOTION_DOT":5.99e-6,"MEAN_MOTION_DDOT":0}]
